[{"OBJECT_NAME":"STARLINK-3549","OBJECT_ID":"2022-022AR","EPOCH":"2026-03-09T22:37:42.045600","MEAN_MOTION":15.08842722,"ECCENTRICITY":0.00016581,"INCLINATION":53.2191,"RA_OF_ASC_NODE":357.9854,"ARG_OF_PERICENTER":94.6589,"MEAN_ANOMALY":265.4592,"EPHEMERIS_TYPE":0,"CLASSIFICATION_TYPE":"U","NORAD_CAT_ID":51891,"ELEMENT_SET_NO":999,"REV_AT_EPOCH":22333,"BSTAR":-1.3633461e-5,"MEAN_MOTION_DOT":-5.05e-6,"MEAN_MOTION_DDOT":0},{"OBJECT_NAME":"CZ-6A DEB","OBJECT_ID":"2022-151LV","EPOCH":"2026-03-09T17:28:26.716800","MEAN_MOTION":14.98158937,"ECCENTRICITY":0.00445354,"INCLINATION":98.6404,"RA_OF_ASC_NODE":145.743,"ARG_OF_PERICENTER":190.094,"MEAN_ANOMALY":169.939,"EPHEMERIS_TYPE":0,"CLASSIFICATION_TYPE":"U","NORAD_CAT_ID":54569,"ELEMENT_SET_NO":999,"REV_AT_EPOCH":17656,"BSTAR":0.0053350459,"MEAN_MOTION_DOT":0.00065033,"MEAN_MOTION_DDOT":0}]
